CCSDS_OMM_VERS = 2.0
CREATION_DATE  = 
ORIGINATOR     = 

OBJECT_NAME    = YOTSUBA-KULOVER
OBJECT_ID      = 1998-067XN
CENTER_NAME    = EARTH
REF_FRAME      = TEME
TIME_SYSTEM    = UTC
MEAN_ELEMENT_THEORY = SGP/SGP4

EPOCH          = 2026-02-16T14:17:57.093216
MEAN_MOTION    = 15.73086327
ECCENTRICITY   = .00047996
INCLINATION    = 51.6251
RA_OF_ASC_NODE = 166.0340
ARG_OF_PERICENTER = 314.6115
MEAN_ANOMALY   = 45.4492

EPHEMERIS_TYPE = 0
CLASSIFICATION_TYPE = U
NORAD_CAT_ID   = 65941
ELEMENT_SET_NO = 999
REV_AT_EPOCH   = 2017
BSTAR          = .10540284E-2
MEAN_MOTION_DOT = .149564E-2
MEAN_MOTION_DDOT = 0

CCSDS_OMM_VERS = 2.0
CREATION_DATE  = 
ORIGINATOR     = 

OBJECT_NAME    = BOTAN
OBJECT_ID      = 1998-067XP
CENTER_NAME    = EARTH
REF_FRAME      = TEME
TIME_SYSTEM    = UTC
MEAN_ELEMENT_THEORY = SGP/SGP4

EPOCH          = 2026-02-16T12:28:30.062496
MEAN_MOTION    = 15.90850823
ECCENTRICITY   = .00089969
INCLINATION    = 51.6162
RA_OF_ASC_NODE = 161.7071
ARG_OF_PERICENTER = 335.4040
MEAN_ANOMALY   = 24.6536

EPHEMERIS_TYPE = 0
CLASSIFICATION_TYPE = U
NORAD_CAT_ID   = 65942
ELEMENT_SET_NO = 999
REV_AT_EPOCH   = 2022
BSTAR          = .15502409E-2
MEAN_MOTION_DOT = .495672E-2
MEAN_MOTION_DDOT = .10514134E-3

CCSDS_OMM_VERS = 2.0
CREATION_DATE  = 
ORIGINATOR     = 

OBJECT_NAME    = E-KAGAKU-1
OBJECT_ID      = 1998-067XQ
CENTER_NAME    = EARTH
REF_FRAME      = TEME
TIME_SYSTEM    = UTC
MEAN_ELEMENT_THEORY = SGP/SGP4

EPOCH          = 2026-02-16T14:19:59.541888
MEAN_MOTION    = 15.72941603
ECCENTRICITY   = .00047898
INCLINATION    = 51.6276
RA_OF_ASC_NODE = 166.0568
ARG_OF_PERICENTER = 328.1831
MEAN_ANOMALY   = 31.8878

EPHEMERIS_TYPE = 0
CLASSIFICATION_TYPE = U
NORAD_CAT_ID   = 65943
ELEMENT_SET_NO = 999
REV_AT_EPOCH   = 2017
BSTAR          = .10381788E-2
MEAN_MOTION_DOT = .146338E-2
MEAN_MOTION_DDOT = 0

CCSDS_OMM_VERS = 2.0
CREATION_DATE  = 
ORIGINATOR     = 

OBJECT_NAME    = HRC MONOBLOCK CAMERA
OBJECT_ID      = 1998-067XR
CENTER_NAME    = EARTH
REF_FRAME      = TEME
TIME_SYSTEM    = UTC
MEAN_ELEMENT_THEORY = SGP/SGP4

EPOCH          = 2026-02-16T13:46:57.038592
MEAN_MOTION    = 15.59974289
ECCENTRICITY   = .0002145
INCLINATION    = 51.6281
RA_OF_ASC_NODE = 171.9106
ARG_OF_PERICENTER = 13.3366
MEAN_ANOMALY   = 346.7683

EPHEMERIS_TYPE = 0
CLASSIFICATION_TYPE = U
NORAD_CAT_ID   = 66052
ELEMENT_SET_NO = 999
REV_AT_EPOCH   = 1909
BSTAR          = .59582E-3
MEAN_MOTION_DOT = .48848E-3
MEAN_MOTION_DDOT = 0

CCSDS_OMM_VERS = 2.0
CREATION_DATE  = 
ORIGINATOR     = 

OBJECT_NAME    = HTV-X1
OBJECT_ID      = 2025-241A
CENTER_NAME    = EARTH
REF_FRAME      = TEME
TIME_SYSTEM    = UTC
MEAN_ELEMENT_THEORY = SGP/SGP4

EPOCH          = 2026-02-16T12:54:05.724000
MEAN_MOTION    = 15.48645386
ECCENTRICITY   = .00110201
INCLINATION    = 51.6319
RA_OF_ASC_NODE = 176.9116
ARG_OF_PERICENTER = 104.8338
MEAN_ANOMALY   = 255.3872

EPHEMERIS_TYPE = 0
CLASSIFICATION_TYPE = U
NORAD_CAT_ID   = 66174
ELEMENT_SET_NO = 999
REV_AT_EPOCH   = 51
BSTAR          = .18403846E-3
MEAN_MOTION_DOT = .9593E-4
MEAN_MOTION_DDOT = 0

CCSDS_OMM_VERS = 2.0
CREATION_DATE  = 
ORIGINATOR     = 

OBJECT_NAME    = SHENZHOU-22
OBJECT_ID      = 2025-272A
CENTER_NAME    = EARTH
REF_FRAME      = TEME
TIME_SYSTEM    = UTC
MEAN_ELEMENT_THEORY = SGP/SGP4

EPOCH          = 2026-02-16T11:07:44.640768
MEAN_MOTION    = 15.59725445
ECCENTRICITY   = .0004139
INCLINATION    = 41.4685
RA_OF_ASC_NODE = 337.2223
ARG_OF_PERICENTER = 115.2170
MEAN_ANOMALY   = 244.9098

EPHEMERIS_TYPE = 0
CLASSIFICATION_TYPE = U
NORAD_CAT_ID   = 66645
ELEMENT_SET_NO = 999
REV_AT_EPOCH   = 26764
BSTAR          = .35509177E-3
MEAN_MOTION_DOT = .29005E-3
MEAN_MOTION_DDOT = 0

CCSDS_OMM_VERS = 2.0
CREATION_DATE  = 
ORIGINATOR     = 

OBJECT_NAME    = SOYUZ-MS 28
OBJECT_ID      = 2025-275A
CENTER_NAME    = EARTH
REF_FRAME      = TEME
TIME_SYSTEM    = UTC
MEAN_ELEMENT_THEORY = SGP/SGP4

EPOCH          = 2026-02-16T20:38:42.613152
MEAN_MOTION    = 15.48651335
ECCENTRICITY   = .001102
INCLINATION    = 51.6319
RA_OF_ASC_NODE = 175.3161
ARG_OF_PERICENTER = 105.9454
MEAN_ANOMALY   = 254.2749

EPHEMERIS_TYPE = 0
CLASSIFICATION_TYPE = U
NORAD_CAT_ID   = 66664
ELEMENT_SET_NO = 999
REV_AT_EPOCH   = 55310
BSTAR          = .17877E-3
MEAN_MOTION_DOT = .9307E-4
MEAN_MOTION_DDOT = 0

CCSDS_OMM_VERS = 2.0
CREATION_DATE  = 
ORIGINATOR     = 

OBJECT_NAME    = DUPLEX
OBJECT_ID      = 1998-067XS
CENTER_NAME    = EARTH
REF_FRAME      = TEME
TIME_SYSTEM    = UTC
MEAN_ELEMENT_THEORY = SGP/SGP4

EPOCH          = 2026-02-16T15:23:58.421760
MEAN_MOTION    = 15.54741995
ECCENTRICITY   = .0001508
INCLINATION    = 51.6294
RA_OF_ASC_NODE = 174.6104
ARG_OF_PERICENTER = 64.3844
MEAN_ANOMALY   = 295.7303

EPHEMERIS_TYPE = 0
CLASSIFICATION_TYPE = U
NORAD_CAT_ID   = 66906
ELEMENT_SET_NO = 999
REV_AT_EPOCH   = 1185
BSTAR          = .56088E-3
MEAN_MOTION_DOT = .37668E-3
MEAN_MOTION_DDOT = 0

CCSDS_OMM_VERS = 2.0
CREATION_DATE  = 
ORIGINATOR     = 

OBJECT_NAME    = ISS OBJECT XT
OBJECT_ID      = 1998-067XT
CENTER_NAME    = EARTH
REF_FRAME      = TEME
TIME_SYSTEM    = UTC
MEAN_ELEMENT_THEORY = SGP/SGP4

EPOCH          = 2026-02-16T14:07:42.755520
MEAN_MOTION    = 15.63436721
ECCENTRICITY   = .0002478
INCLINATION    = 51.6273
RA_OF_ASC_NODE = 172.7525
ARG_OF_PERICENTER = 318.2214
MEAN_ANOMALY   = 41.8591

EPHEMERIS_TYPE = 0
CLASSIFICATION_TYPE = U
NORAD_CAT_ID   = 66907
ELEMENT_SET_NO = 999
REV_AT_EPOCH   = 1187
BSTAR          = .12603E-2
MEAN_MOTION_DOT = .119926E-2
MEAN_MOTION_DDOT = 0

CCSDS_OMM_VERS = 2.0
CREATION_DATE  = 
ORIGINATOR     = 

OBJECT_NAME    = SILVERSAT
OBJECT_ID      = 1998-067XV
CENTER_NAME    = EARTH
REF_FRAME      = TEME
TIME_SYSTEM    = UTC
MEAN_ELEMENT_THEORY = SGP/SGP4

EPOCH          = 2026-02-16T13:19:05.342016
MEAN_MOTION    = 15.65168033
ECCENTRICITY   = .0003274
INCLINATION    = 51.6271
RA_OF_ASC_NODE = 172.5261
ARG_OF_PERICENTER = 318.3444
MEAN_ANOMALY   = 41.7301

EPHEMERIS_TYPE = 0
CLASSIFICATION_TYPE = U
NORAD_CAT_ID   = 66909
ELEMENT_SET_NO = 999
REV_AT_EPOCH   = 1187
BSTAR          = .14211E-2
MEAN_MOTION_DOT = .145375E-2
MEAN_MOTION_DDOT = 0

